[{"OBJECT_NAME":"STARLINK-4800","OBJECT_ID":"2022-114AN","EPOCH":"2025-07-31T22:41:13.721280","MEAN_MOTION":15.08838336,"ECCENTRICITY":0.0001275,"INCLINATION":53.2165,"RA_OF_ASC_NODE":195.3159,"ARG_OF_PERICENTER":80.4681,"MEAN_ANOMALY":279.6456,"EPHEMERIS_TYPE":0,"CLASSIFICATION_TYPE":"U","NORAD_CAT_ID":53854,"ELEMENT_SET_NO":999,"REV_AT_EPOCH":15978,"BSTAR":8.03e-7,"MEAN_MOTION_DOT":-2.75e-6,"MEAN_MOTION_DDOT":0},{"OBJECT_NAME":"STARLINK-4703","OBJECT_ID":"2022-114AP","EPOCH":"2025-07-31T23:12:59.505696","MEAN_MOTION":15.08838577,"ECCENTRICITY":0.0001132,"INCLINATION":53.2165,"RA_OF_ASC_NODE":204.7269,"ARG_OF_PERICENTER":76.1407,"MEAN_ANOMALY":283.9711,"EPHEMERIS_TYPE":0,"CLASSIFICATION_TYPE":"U","NORAD_CAT_ID":53855,"ELEMENT_SET_NO":999,"REV_AT_EPOCH":15965,"BSTAR":1.9949e-5,"MEAN_MOTION_DOT":3.0e-7,"MEAN_MOTION_DDOT":0},{"OBJECT_NAME":"STARLINK-4795","OBJECT_ID":"2022-114AQ","EPOCH":"2025-07-31T22:20:00.363264","MEAN_MOTION":15.0883557,"ECCENTRICITY":0.0001109,"INCLINATION":53.2166,"RA_OF_ASC_NODE":195.2256,"ARG_OF_PERICENTER":75.9279,"MEAN_ANOMALY":284.1836,"EPHEMERIS_TYPE":0,"CLASSIFICATION_TYPE":"U","NORAD_CAT_ID":53856,"ELEMENT_SET_NO":999,"REV_AT_EPOCH":15978,"BSTAR":3.4977e-5,"MEAN_MOTION_DOT":2.69e-6,"MEAN_MOTION_DDOT":0},{"OBJECT_NAME":"STARLINK-4809","OBJECT_ID":"2022-114AR","EPOCH":"2025-07-31T11:42:41.348448","MEAN_MOTION":15.08835684,"ECCENTRICITY":9.59e-5,"INCLINATION":53.2158,"RA_OF_ASC_NODE":206.7136,"ARG_OF_PERICENTER":73.2408,"MEAN_ANOMALY":286.8689,"EPHEMERIS_TYPE":0,"CLASSIFICATION_TYPE":"U","NORAD_CAT_ID":53857,"ELEMENT_SET_NO":999,"REV_AT_EPOCH":15958,"BSTAR":2.1302e-5,"MEAN_MOTION_DOT":5.1e-7,"MEAN_MOTION_DDOT":0},{"OBJECT_NAME":"STARLINK-4798","OBJECT_ID":"2022-114AS","EPOCH":"2025-07-31T22:35:55.356288","MEAN_MOTION":15.08837969,"ECCENTRICITY":0.0001407,"INCLINATION":53.2163,"RA_OF_ASC_NODE":195.2945,"ARG_OF_PERICENTER":76.4873,"MEAN_ANOMALY":283.6276,"EPHEMERIS_TYPE":0,"CLASSIFICATION_TYPE":"U","NORAD_CAT_ID":53858,"ELEMENT_SET_NO":999,"REV_AT_EPOCH":15978,"BSTAR":3.0296e-5,"MEAN_MOTION_DOT":1.94e-6,"MEAN_MOTION_DDOT":0},{"OBJECT_NAME":"STARLINK-4790","OBJECT_ID":"2022-114AT","EPOCH":"2025-07-31T08:40:32.246976","MEAN_MOTION":15.0884158,"ECCENTRICITY":0.000116,"INCLINATION":53.216,"RA_OF_ASC_NODE":202.3573,"ARG_OF_PERICENTER":77.2093,"MEAN_ANOMALY":282.9029,"EPHEMERIS_TYPE":0,"CLASSIFICATION_TYPE":"U","NORAD_CAT_ID":53859,"ELEMENT_SET_NO":999,"REV_AT_EPOCH":15963,"BSTAR":6.1904e-5,"MEAN_MOTION_DOT":6.98e-6,"MEAN_MOTION_DDOT":0},{"OBJECT_NAME":"STARLINK-4799","OBJECT_ID":"2022-114AU","EPOCH":"2025-07-31T22:25:18.763680","MEAN_MOTION":15.08837337,"ECCENTRICITY":8.25e-5,"INCLINATION":53.2158,"RA_OF_ASC_NODE":195.2499,"ARG_OF_PERICENTER":56.9431,"MEAN_ANOMALY":303.164,"EPHEMERIS_TYPE":0,"CLASSIFICATION_TYPE":"U","NORAD_CAT_ID":53860,"ELEMENT_SET_NO":999,"REV_AT_EPOCH":15954,"BSTAR":2.2313e-5,"MEAN_MOTION_DOT":6.7e-7,"MEAN_MOTION_DDOT":0},{"OBJECT_NAME":"STARLINK-4781","OBJECT_ID":"2022-114AV","EPOCH":"2025-07-31T16:09:04.159584","MEAN_MOTION":15.08843015,"ECCENTRICITY":0.0001358,"INCLINATION":53.2169,"RA_OF_ASC_NODE":196.4663,"ARG_OF_PERICENTER":84.8915,"MEAN_ANOMALY":275.2232,"EPHEMERIS_TYPE":0,"CLASSIFICATION_TYPE":"U","NORAD_CAT_ID":53861,"ELEMENT_SET_NO":999,"REV_AT_EPOCH":15974,"BSTAR":5.8531e-5,"MEAN_MOTION_DOT":6.44e-6,"MEAN_MOTION_DDOT":0},{"OBJECT_NAME":"STARLINK-4788","OBJECT_ID":"2022-114AX","EPOCH":"2025-07-31T22:14:41.944704","MEAN_MOTION":15.08834679,"ECCENTRICITY":0.0001358,"INCLINATION":53.2161,"RA_OF_ASC_NODE":195.2042,"ARG_OF_PERICENTER":84.3549,"MEAN_ANOMALY":275.7598,"EPHEMERIS_TYPE":0,"CLASSIFICATION_TYPE":"U","NORAD_CAT_ID":53863,"ELEMENT_SET_NO":999,"REV_AT_EPOCH":15978,"BSTAR":2.5483e-5,"MEAN_MOTION_DOT":1.18e-6,"MEAN_MOTION_DDOT":0},{"OBJECT_NAME":"STARLINK-4779","OBJECT_ID":"2022-114AY","EPOCH":"2025-07-31T08:27:55.935936","MEAN_MOTION":15.08842803,"ECCENTRICITY":0.0001299,"INCLINATION":53.216,"RA_OF_ASC_NODE":197.3065,"ARG_OF_PERICENTER":85.868,"MEAN_ANOMALY":274.2461,"EPHEMERIS_TYPE":0,"CLASSIFICATION_TYPE":"U","NORAD_CAT_ID":53864,"ELEMENT_SET_NO":999,"REV_AT_EPOCH":15970,"BSTAR":-1.9011e-5,"MEAN_MOTION_DOT":-5.9e-6,"MEAN_MOTION_DDOT":0},{"OBJECT_NAME":"STARLINK-4762","OBJECT_ID":"2022-114BA","EPOCH":"2025-07-31T14:36:20.838528","MEAN_MOTION":15.08838524,"ECCENTRICITY":0.0001322,"INCLINATION":53.2178,"RA_OF_ASC_NODE":176.8032,"ARG_OF_PERICENTER":80.2971,"MEAN_ANOMALY":279.817,"EPHEMERIS_TYPE":0,"CLASSIFICATION_TYPE":"U","NORAD_CAT_ID":53866,"ELEMENT_SET_NO":999,"REV_AT_EPOCH":16001,"BSTAR":8.9336e-6,"MEAN_MOTION_DOT":-1.46e-6,"MEAN_MOTION_DDOT":0},{"OBJECT_NAME":"STARLINK-4793","OBJECT_ID":"2022-114BB","EPOCH":"2025-07-31T22:16:01.489728","MEAN_MOTION":15.08848005,"ECCENTRICITY":0.0001522,"INCLINATION":53.2154,"RA_OF_ASC_NODE":185.22,"ARG_OF_PERICENTER":73.4985,"MEAN_ANOMALY":286.6174,"EPHEMERIS_TYPE":0,"CLASSIFICATION_TYPE":"U","NORAD_CAT_ID":53867,"ELEMENT_SET_NO":999,"REV_AT_EPOCH":15992,"BSTAR":4.0938e-5,"MEAN_MOTION_DOT":3.64e-6,"MEAN_MOTION_DDOT":0},{"OBJECT_NAME":"STARLINK-4789","OBJECT_ID":"2022-114BC","EPOCH":"2025-07-31T02:46:12.300096","MEAN_MOTION":15.08850592,"ECCENTRICITY":0.0001583,"INCLINATION":53.216,"RA_OF_ASC_NODE":178.7171,"ARG_OF_PERICENTER":82.2659,"MEAN_ANOMALY":277.8513,"EPHEMERIS_TYPE":0,"CLASSIFICATION_TYPE":"U","NORAD_CAT_ID":53868,"ELEMENT_SET_NO":999,"REV_AT_EPOCH":15994,"BSTAR":7.3625e-5,"MEAN_MOTION_DOT":8.84e-6,"MEAN_MOTION_DDOT":0},{"OBJECT_NAME":"STARLINK-4810","OBJECT_ID":"2022-114BD","EPOCH":"2025-07-31T15:01:25.733856","MEAN_MOTION":15.08829197,"ECCENTRICITY":0.0001408,"INCLINATION":53.2168,"RA_OF_ASC_NODE":186.1851,"ARG_OF_PERICENTER":87.6219,"MEAN_ANOMALY":272.4935,"EPHEMERIS_TYPE":0,"CLASSIFICATION_TYPE":"U","NORAD_CAT_ID":53869,"ELEMENT_SET_NO":999,"REV_AT_EPOCH":15988,"BSTAR":-7.7703e-6,"MEAN_MOTION_DOT":-4.12e-6,"MEAN_MOTION_DDOT":0},{"OBJECT_NAME":"STARLINK-4732","OBJECT_ID":"2022-114BE","EPOCH":"2025-07-31T21:56:07.763136","MEAN_MOTION":15.08837567,"ECCENTRICITY":0.0001389,"INCLINATION":53.216,"RA_OF_ASC_NODE":175.154,"ARG_OF_PERICENTER":89.6789,"MEAN_ANOMALY":270.4362,"EPHEMERIS_TYPE":0,"CLASSIFICATION_TYPE":"U","NORAD_CAT_ID":53870,"ELEMENT_SET_NO":999,"REV_AT_EPOCH":16006,"BSTAR":4.0251e-7,"MEAN_MOTION_DOT":-2.82e-6,"MEAN_MOTION_DDOT":0},{"OBJECT_NAME":"STARLINK-4740","OBJECT_ID":"2022-114BF","EPOCH":"2025-07-31T21:13:41.145600","MEAN_MOTION":15.0883827,"ECCENTRICITY":0.0001456,"INCLINATION":53.2171,"RA_OF_ASC_NODE":174.9763,"ARG_OF_PERICENTER":80.3098,"MEAN_ANOMALY":279.8058,"EPHEMERIS_TYPE":0,"CLASSIFICATION_TYPE":"U","NORAD_CAT_ID":53871,"ELEMENT_SET_NO":999,"REV_AT_EPOCH":16006,"BSTAR":9.3285e-6,"MEAN_MOTION_DOT":-1.39e-6,"MEAN_MOTION_DDOT":0},{"OBJECT_NAME":"STARLINK-5028","OBJECT_ID":"2022-119A","EPOCH":"2025-07-31T11:07:01.655904","MEAN_MOTION":15.08838849,"ECCENTRICITY":0.0001184,"INCLINATION":53.2157,"RA_OF_ASC_NODE":237.4758,"ARG_OF_PERICENTER":88.6448,"MEAN_ANOMALY":271.468,"EPHEMERIS_TYPE":0,"CLASSIFICATION_TYPE":"U","NORAD_CAT_ID":53886,"ELEMENT_SET_NO":999,"REV_AT_EPOCH":15828,"BSTAR":1.643e-5,"MEAN_MOTION_DOT":-2.6e-7,"MEAN_MOTION_DDOT":0},{"OBJECT_NAME":"STARLINK-5029","OBJECT_ID":"2022-119B","EPOCH":"2025-07-31T07:40:20.351136","MEAN_MOTION":15.08837293,"ECCENTRICITY":9.35e-5,"INCLINATION":53.2159,"RA_OF_ASC_NODE":238.0014,"ARG_OF_PERICENTER":74.6584,"MEAN_ANOMALY":285.4512,"EPHEMERIS_TYPE":0,"CLASSIFICATION_TYPE":"U","NORAD_CAT_ID":53887,"ELEMENT_SET_NO":999,"REV_AT_EPOCH":15826,"BSTAR":2.0114e-5,"MEAN_MOTION_DOT":3.2e-7,"MEAN_MOTION_DDOT":0},{"OBJECT_NAME":"STARLINK-5034","OBJECT_ID":"2022-119C","EPOCH":"2025-07-31T09:26:20.443488","MEAN_MOTION":15.08837811,"ECCENTRICITY":8.63e-5,"INCLINATION":53.2164,"RA_OF_ASC_NODE":237.7511,"ARG_OF_PERICENTER":74.0443,"MEAN_ANOMALY":286.0644,"EPHEMERIS_TYPE":0,"CLASSIFICATION_TYPE":"U","NORAD_CAT_ID":53888,"ELEMENT_SET_NO":999,"REV_AT_EPOCH":15827,"BSTAR":2.1523e-5,"MEAN_MOTION_DOT":5.5e-7,"MEAN_MOTION_DDOT":0},{"OBJECT_NAME":"STARLINK-5031","OBJECT_ID":"2022-119D","EPOCH":"2025-07-31T09:21:02.271168","MEAN_MOTION":15.08853387,"ECCENTRICITY":0.0001104,"INCLINATION":53.2163,"RA_OF_ASC_NODE":237.7267,"ARG_OF_PERICENTER":67.8936,"MEAN_ANOMALY":292.2174,"EPHEMERIS_TYPE":0,"CLASSIFICATION_TYPE":"U","NORAD_CAT_ID":53889,"ELEMENT_SET_NO":999,"REV_AT_EPOCH":15827,"BSTAR":0.00013118,"MEAN_MOTION_DOT":1.801e-5,"MEAN_MOTION_DDOT":0},{"OBJECT_NAME":"STARLINK-5050","OBJECT_ID":"2022-119E","EPOCH":"2025-07-31T22:43:08.406912","MEAN_MOTION":15.08845439,"ECCENTRICITY":0.0001089,"INCLINATION":53.2166,"RA_OF_ASC_NODE":199.8598,"ARG_OF_PERICENTER":82.6837,"MEAN_ANOMALY":277.4279,"EPHEMERIS_TYPE":0,"CLASSIFICATION_TYPE":"U","NORAD_CAT_ID":53890,"ELEMENT_SET_NO":999,"REV_AT_EPOCH":15885,"BSTAR":-0.0002628,"MEAN_MOTION_DOT":-4.468e-5,"MEAN_MOTION_DDOT":0},{"OBJECT_NAME":"STARLINK-5041","OBJECT_ID":"2022-119F","EPOCH":"2025-07-31T09:10:25.210272","MEAN_MOTION":15.08838773,"ECCENTRICITY":0.0001133,"INCLINATION":53.2164,"RA_OF_ASC_NODE":237.6803,"ARG_OF_PERICENTER":74.7837,"MEAN_ANOMALY":285.328,"EPHEMERIS_TYPE":0,"CLASSIFICATION_TYPE":"U","NORAD_CAT_ID":53891,"ELEMENT_SET_NO":999,"REV_AT_EPOCH":15827,"BSTAR":2.7472e-5,"MEAN_MOTION_DOT":1.49e-6,"MEAN_MOTION_DDOT":0},{"OBJECT_NAME":"STARLINK-5046","OBJECT_ID":"2022-119G","EPOCH":"2025-07-31T07:08:29.988384","MEAN_MOTION":15.08838027,"ECCENTRICITY":0.0001067,"INCLINATION":53.2158,"RA_OF_ASC_NODE":237.8666,"ARG_OF_PERICENTER":77.3827,"MEAN_ANOMALY":282.7285,"EPHEMERIS_TYPE":0,"CLASSIFICATION_TYPE":"U","NORAD_CAT_ID":53892,"ELEMENT_SET_NO":999,"REV_AT_EPOCH":15826,"BSTAR":4.3309e-5,"MEAN_MOTION_DOT":4.02e-6,"MEAN_MOTION_DDOT":0}]
